[{"OBJECT_NAME":"CUAVA-2","OBJECT_ID":"2024-149BM","EPOCH":"2026-03-09T11:16:09.234912","MEAN_MOTION":15.33611708,"ECCENTRICITY":0.00056694,"INCLINATION":97.3769,"RA_OF_ASC_NODE":149.9859,"ARG_OF_PERICENTER":291.2139,"MEAN_ANOMALY":68.8497,"EPHEMERIS_TYPE":0,"CLASSIFICATION_TYPE":"U","NORAD_CAT_ID":60527,"ELEMENT_SET_NO":999,"REV_AT_EPOCH":8687,"BSTAR":0.00047570318,"MEAN_MOTION_DOT":0.000154,"MEAN_MOTION_DDOT":0},{"OBJECT_NAME":"STARLINK-35239","OBJECT_ID":"2025-210B","EPOCH":"2026-03-09T22:36:35.624736","MEAN_MOTION":15.30193892,"ECCENTRICITY":0.00010487,"INCLINATION":53.1574,"RA_OF_ASC_NODE":305.632,"ARG_OF_PERICENTER":78.665,"MEAN_ANOMALY":281.4469,"EPHEMERIS_TYPE":0,"CLASSIFICATION_TYPE":"U","NORAD_CAT_ID":65623,"ELEMENT_SET_NO":999,"REV_AT_EPOCH":2777,"BSTAR":0.00080691322,"MEAN_MOTION_DOT":0.00023611,"MEAN_MOTION_DDOT":0}]
